[{"OBJECT_NAME":"GLOBAL-4","OBJECT_ID":"2019-054E","EPOCH":"2026-03-09T08:50:03.339744","MEAN_MOTION":15.55419748,"ECCENTRICITY":0.00055925,"INCLINATION":45.007,"RA_OF_ASC_NODE":88.4746,"ARG_OF_PERICENTER":7.6875,"MEAN_ANOMALY":352.4104,"EPHEMERIS_TYPE":0,"CLASSIFICATION_TYPE":"U","NORAD_CAT_ID":44499,"ELEMENT_SET_NO":999,"REV_AT_EPOCH":36477,"BSTAR":0.00061659402,"MEAN_MOTION_DOT":0.00042886,"MEAN_MOTION_DDOT":0},{"OBJECT_NAME":"STARLINK-1309","OBJECT_ID":"2020-019BG","EPOCH":"2026-03-09T10:26:34.247904","MEAN_MOTION":15.54780234,"ECCENTRICITY":0.00056157,"INCLINATION":53.0666,"RA_OF_ASC_NODE":124.8394,"ARG_OF_PERICENTER":27.8152,"MEAN_ANOMALY":332.3157,"EPHEMERIS_TYPE":0,"CLASSIFICATION_TYPE":"U","NORAD_CAT_ID":45414,"ELEMENT_SET_NO":999,"REV_AT_EPOCH":32999,"BSTAR":0.0015124832,"MEAN_MOTION_DOT":0.00103315,"MEAN_MOTION_DDOT":0}]
